[{"OBJECT_NAME":"STARLINK-4632","OBJECT_ID":"2022-105AH","EPOCH":"2026-03-09T15:44:06.795744","MEAN_MOTION":15.05633478,"ECCENTRICITY":0.0002937,"INCLINATION":97.6024,"RA_OF_ASC_NODE":311.2676,"ARG_OF_PERICENTER":86.7911,"MEAN_ANOMALY":273.3651,"EPHEMERIS_TYPE":0,"CLASSIFICATION_TYPE":"U","NORAD_CAT_ID":53679,"ELEMENT_SET_NO":999,"REV_AT_EPOCH":19330,"BSTAR":-0.00011887,"MEAN_MOTION_DOT":-1.775e-5,"MEAN_MOTION_DDOT":0},{"OBJECT_NAME":"UNKNOWN","OBJECT_ID":"","EPOCH":"2026-03-07T20:34:11.411328","MEAN_MOTION":13.11333445,"ECCENTRICITY":0.0894896,"INCLINATION":65.8286,"RA_OF_ASC_NODE":264.5373,"ARG_OF_PERICENTER":244.8718,"MEAN_ANOMALY":105.693,"EPHEMERIS_TYPE":0,"CLASSIFICATION_TYPE":"U","NORAD_CAT_ID":81792,"ELEMENT_SET_NO":999,"REV_AT_EPOCH":9119,"BSTAR":0.00068623,"MEAN_MOTION_DOT":1.902e-5,"MEAN_MOTION_DDOT":0}]
